[{"OBJECT_NAME":"STARLINK-3520","OBJECT_ID":"2022-016AD","EPOCH":"2026-03-09T23:21:27.888480","MEAN_MOTION":15.08839564,"ECCENTRICITY":0.00013505,"INCLINATION":53.2184,"RA_OF_ASC_NODE":317.858,"ARG_OF_PERICENTER":96.0024,"MEAN_ANOMALY":264.1122,"EPHEMERIS_TYPE":0,"CLASSIFICATION_TYPE":"U","NORAD_CAT_ID":51741,"ELEMENT_SET_NO":999,"REV_AT_EPOCH":22360,"BSTAR":-5.8768291e-5,"MEAN_MOTION_DOT":-1.223e-5,"MEAN_MOTION_DDOT":0},{"OBJECT_NAME":"LEMUR-2-KREMPEL-BRO2","OBJECT_ID":"2025-061C","EPOCH":"2026-03-09T20:43:52.091904","MEAN_MOTION":15.13192951,"ECCENTRICITY":0.00179248,"INCLINATION":97.5616,"RA_OF_ASC_NODE":45.5365,"ARG_OF_PERICENTER":236.8576,"MEAN_ANOMALY":123.0936,"EPHEMERIS_TYPE":0,"CLASSIFICATION_TYPE":"U","NORAD_CAT_ID":63353,"ELEMENT_SET_NO":999,"REV_AT_EPOCH":5258,"BSTAR":0.00044346981,"MEAN_MOTION_DOT":7.837e-5,"MEAN_MOTION_DDOT":0}]
